CUBEBUG-2 (LO-74)       
1 39440U 13066AA  26168.80003133  .00004032  00000+0  37357-3 0  9993
2 39440  97.8909 117.7807 0058350  27.1118 333.3127 14.93766530677080
FUNCUBE-1 (AO-73)       
1 39444U 13066AE  26168.85201685  .00005241  00000+0  32650-3 0  9998
2 39444  97.8280 140.3117 0035693 198.4504 161.5433 15.09497500679762
UWE-3                   
1 39446U 13066AG  26168.81721396  .00003675  00000+0  31732-3 0  9991
2 39446  97.8697 124.8951 0047468 319.0483  40.7177 14.97029101677674
UNISAT-6                
1 40012U 14033C   26168.40223077  .00001884  00000+0  20612-3 0  9990
2 40012  97.7880 321.1100 0046246  68.6169 291.9973 14.88246960646198
DUCHIFAT-1              
1 40021U 14033M   26168.72515267  .00090047  00000+0  92235-3 0  9999
2 40021  98.0453 227.9612 0002741 116.8844 243.2694 15.64688216655837
QB50P1                  
1 40025U 14033R   26168.54551088  .00005822  00000+0  28772-3 0  9996
2 40025  98.0960 179.7168 0007823 213.7845 146.2890 15.18264690653088
LILACSAT-2              
1 40908U 15049K   26168.91724047  .00014369  00000+0  24489-3 0  9999
2 40908  97.4639 205.7867 0005540 241.2363 118.8333 15.51465372595860
FOX-1A (AO-85)          
1 40967U 15058D   26168.62085905  .00001835  00000+0  17288-3 0  9998
2 40967  64.7761 277.6363 0130498  56.4134 304.9355 14.90971345113637
CAS-2T & KS-1Q          
1 41847U 16066G   26168.79471087  .00001433  00000+0  20773-3 0  9991
2 41847  98.3822 244.5241 0342813 127.6417 235.6409 14.44696391504880
RADFXSAT (FOX-1B)       
1 43017U 17073E   26168.60486874  .00005679  00000+0  24962-3 0  9991
2 43017  97.4696  35.8108 0149538 327.7970  31.4193 15.12722439465459
DIWATA-2B               
1 43678U 18084H   26168.90344039  .00002258  00000+0  18437-3 0  9996
2 43678  98.1177   5.1429 0012514 167.7661 192.3868 15.00455855416322
ES'HAIL 2               
1 43700U 18090A   26168.90192579  .00000138  00000+0  00000+0 0  9997
2 43700   0.0174  17.6316 0001656 106.4246 132.5644  1.00271041 27687
FOX-1CLIFF (AO-95)      
1 43770U 18099N   26168.40539693  .00008770  00000+0  33623-3 0  9991
2 43770  97.4379 228.6506 0007951 357.1065   3.0126 15.26715554413258
ITASAT                  
1 43786U 18099AE  26168.61452307  .00005652  00000+0  27237-3 0  9997
2 43786  97.4024 220.1177 0012039 358.8132   1.3072 15.19062139412974
JY1SAT (JO-97)          
1 43803U 18099AX  26168.16099664  .00012621  00000+0  39004-3 0  9999
2 43803  97.4126 230.9950 0004332 262.3288  97.7462 15.33652151413623
UWE-4                   
1 43880U 18111E   26168.79759647  .00027737  00000+0  56593-3 0  9998
2 43880  97.5854  97.2166 0005425 339.8201  20.2832 15.46158858410874
TIANYAN 01              
1 44881U 19093C   26168.98712831  .00000308  00000+0  40778-4 0  9999
2 44881  97.7535 241.1997 0015109  84.2682 276.0256 14.86519925351537
RS-44 & BREEZE-KM R/B   
1 44909U 19096E   26168.86518950  .00000013  00000+0  11228-5 0  9998
2 44909  82.5219 339.2542 0218196 142.5859 219.0663 12.79748849302432
SALSAT                  
1 46495U 20068K   26168.53797512  .00006219  00000+0  21821-3 0  9990
2 46495  97.8847 171.6239 0008040 306.6544  53.3955 15.29803905315418
XW-3 (CAS-9)            
1 50466U 21131B   26168.95706122  .00000178  00000+0  68524-4 0  9998
2 50466  98.4987 261.3426 0005395  94.8981 265.2824 14.41357252235220
GREENCUBE (IO-117)      
1 53109U 22080E   26164.29338770 -.00000003  00000+0  00000+0 0  9990
2 53109  70.1444 299.5995 0008910 290.4576  69.5127  6.42583230 91811
UMKA 1 (RS40S)          
1 57172U 23091G   26168.94926629  .00004802  00000+0  22030-3 0  9990
2 57172  97.5047 227.6436 0014247 115.2479 245.0235 15.20826055164122
CUBESX-HSE 3 (RS42S)    
1 57178U 23091N   26168.89268595  .00010594  00000+0  35294-3 0  9992
2 57178  97.5089 234.4887 0012029  92.6817 267.5801 15.31230297164532
MONITOR-3 (RS58S)       
1 57180U 23091Q   26168.91873236  .00009028  00000+0  33387-3 0  9993
2 57180  97.5079 232.3700 0013100  98.5751 261.6973 15.27854318164400
MONITOR-4 (RS57S)       
1 57182U 23091S   26168.89774852  .00008632  00000+0  31855-3 0  9994
2 57182  97.5073 232.3204 0013093  98.9441 261.3281 15.27939578164407
MONITOR-2 (RS39S)       
1 57184U 23091U   26168.90559823  .00004357  00000+0  21161-3 0  9996
2 57184  97.5069 227.1838 0012749 108.9465 251.3152 15.18916443164068
SVYATOBOR 1 (RS60S)     
1 57187U 23091X   26168.91145076  .00007490  00000+0  28823-3 0  9994
2 57187  97.5085 232.7323 0010876  92.3437 267.9047 15.26626078164421
VIZARD-METEO (RS38S)    
1 57189U 23091Z   26168.92935474  .00014300  00000+0  40901-3 0  9995
2 57189  97.5090 238.4294 0008220  75.4198 284.7956 15.36046699164809
POLYTECH-UNIVERSE 3 (R*)
1 57191U 23091AB  26168.93270414  .00004020  00000+0  19410-3 0  9994
2 57191  97.5044 226.7153 0016897 124.3485 235.9350 15.19119061164066
UTMN 2 (RS27S)          
1 57203U 23091AP  26168.90988740  .00010752  00000+0  34929-3 0  9994
2 57203  97.5084 236.1409 0009219  81.5436 278.6850 15.32067629164654
